STARLINK-33572          
1 62767U 25015K   25192.76004222  .00014641  00000+0  50558-3 0  9994
2 62767  53.1593   1.5560 0000693  79.0294 281.0785 15.30192321 27537
STARLINK-33601          
1 62768U 25015L   25192.88433084  .00013293  00000+0  45992-3 0  9998
2 62768  53.1592   0.9089 0000459 163.3570 196.7446 15.30213461 27614
STARLINK-33569          
1 62769U 25015M   25192.73682265  .00014403  00000+0  49736-3 0  9994
2 62769  53.1616   1.4144 0001432  91.1114 269.0051 15.30207389 27599
STARLINK-33594          
1 62770U 25015N   25192.72944644  .00009978  00000+0  34869-3 0  9999
2 62770  53.1620   1.3666 0001052  97.2698 262.8422 15.30187921 27598
STARLINK-33598          
1 62771U 25015P   25192.73893191  .00011278  00000+0  39220-3 0  9993
2 62771  53.1613   1.4207 0001110  85.0940 275.0187 15.30209400 27594
STARLINK-33600          
1 62772U 25015Q   25193.17092374  .00016530  00000+0  56916-3 0  9994
2 62772  53.1592 359.8535 0001381  84.1617 275.9541 15.30190470 27652
STARLINK-33567          
1 62773U 25015R   25192.88116919  .00014771  00000+0  50962-3 0  9994
2 62773  53.1605   0.8881 0001193  69.7662 290.3466 15.30214592 27609
STARLINK-33574          
1 62774U 25015S   25192.74315664  .00015004  00000+0  51761-3 0  9996
2 62774  53.1611   1.4524 0001298  86.7403 273.3746 15.30204331 27316
STARLINK-33576          
1 62775U 25015T   25193.16036842  .00011509  00000+0  40003-3 0  9995
2 62775  53.1601 359.7880 0001097  80.8531 279.2594 15.30206218 27596
STARLINK-33570          
1 62776U 25015U   25192.74209886  .00016928  00000+0  58215-3 0  9993
2 62776  53.1614   1.4446 0001272  90.7358 269.3788 15.30212710 27535
STARLINK-33591          
1 62777U 25015V   25192.76531574  .00013819  00000+0  47782-3 0  9991
2 62777  53.1590   1.5882 0001083 117.3792 242.7319 15.30200277 27598
STARLINK-33573          
1 62778U 25015W   25192.73576738  .00014118  00000+0  48784-3 0  9996
2 62778  53.1616   1.4030 0000652  80.9713 279.1361 15.30203430 27596
STARLINK-33568          
1 62779U 25015X   25192.75898488  .00018040  00000+0  61966-3 0  9993
2 62779  53.1588   1.5529 0001079  95.0694 265.0430 15.30202858 27435
STARLINK-33593          
1 62780U 25015Y   25192.73998871  .00015611  00000+0  53796-3 0  9993
2 62780  53.1614   1.4296 0001347  76.9333 283.1818 15.30208471 27598
STARLINK-33588          
1 62781U 25015Z   25193.15244264  .00016754  00000+0  57641-3 0  9993
2 62781  53.1597 357.5457 0001083  87.5225 272.5900 15.30205030 27679
STARLINK-33585          
1 62782U 25015AA  25192.79158346  .00013509  00000+0  46726-3 0  9995
2 62782  53.1611   1.0412 0001082  75.3311 284.7809 15.30210482 27321
STARLINK-33582          
1 62783U 25015AB  25192.88011399  .00027879  00000+0  94921-3 0  9997
2 62783  53.1600   0.8817 0001039  94.7428 265.3691 15.30223146 27552
STARLINK-33581          
1 62784U 25015AC  25192.84540157  .00014414  00000+0  49766-3 0  9991
2 62784  53.1596   1.3746 0000987  81.7746 278.3367 15.30210809 27594
STARLINK-32883          
1 62806U 25018A   25193.16188417  .00023444  00000+0  80106-3 0  9998
2 62806  53.1603 346.7525 0001761  85.3507 274.7694 15.30204053 26984
STARLINK-32886          
1 62807U 25018B   25193.16082919  .00012199  00000+0  42326-3 0  9996
2 62807  53.1604 346.7441 0001545  81.3245 278.7931 15.30205642 27252
STARLINK-32848          
1 62808U 25018C   25192.83952756  .00024169  00000+0  82501-3 0  9994
2 62808  53.1602 348.2948 0000503  31.6892 328.4139 15.30219252 26297
STARLINK-32787          
1 62809U 25018D   25193.15872022  .00029287  00000+0  99704-3 0  9997
2 62809  53.1607 346.7296 0001752  85.6572 274.4629 15.30199898 27280
STARLINK-32851          
1 62810U 25018E   25193.16400887  .00024170  00000+0  82473-3 0  9997
2 62810  53.1587 346.7649 0001420  90.3298 269.7865 15.30231734 27297
STARLINK-32847          
1 62811U 25018F   25192.81947956  .00015065  00000+0  51954-3 0  9995
2 62811  53.1619 348.1651 0001152  84.9207 275.1925 15.30211214 26292
STARLINK-32837          
1 62812U 25018G   25193.15555410  .00027046  00000+0  92157-3 0  9996
2 62812  53.1634 346.7174 0001697  87.4202 272.6993 15.30213949 27296
STARLINK-32855          
1 62813U 25018H   25192.42442728  .00006296  00000+0  22453-3 0  9999
2 62813  53.1601 349.9658 0001277  87.0752 273.0395 15.30197882 27145
STARLINK-32843          
1 62814U 25018J   25192.72261398  .00016844  00000+0  57977-3 0  9994
2 62814  53.1575 348.9803 0000232  33.3648 326.7367 15.30185580 26275
STARLINK-32845          
1 62815U 25018K   25193.14922087  .00010578  00000+0  36867-3 0  9994
2 62815  53.1607 346.6704 0002005  78.1005 282.0220 15.30208714 26986
STARLINK-32854          
1 62816U 25018L   25192.84586015  .00014003  00000+0  48387-3 0  9995
2 62816  53.1589 348.3310 0000256 111.5587 248.5441 15.30208426 27108
STARLINK-32824          
1 62817U 25018M   25192.69412745  .00012645  00000+0  43824-3 0  9998
2 62817  53.1619 348.8025 0001311  90.9506 269.1645 15.30206572 27223
STARLINK-32853          
1 62818U 25018N   25192.81842417  .00008653  00000+0  30390-3 0  9994
2 62818  53.1616 348.1577 0001116  81.2842 278.8285 15.30204782 26301
STARLINK-32856          
1 62819U 25018P   25192.84164153  .00016307  00000+0  56127-3 0  9993
2 62819  53.1597 348.3056 0001194  87.0420 273.0717 15.30212003 26308
STARLINK-32844          
1 62820U 25018Q   25192.71417742  .00014263  00000+0  49263-3 0  9998
2 62820  53.1595 348.9273 0001352  90.8553 269.2602 15.30208052 26275
STARLINK-32782          
1 62821U 25018R   25192.70045862  .00015958  00000+0  54962-3 0  9992
2 62821  53.1620 348.8445 0001049  77.9650 282.1468 15.30208600 26286
STARLINK-32842          
1 62822U 25018S   25193.16505025  .00023167  00000+0  79187-3 0  9993
2 62822  53.1602 346.7678 0001696  83.6721 276.4472 15.30200176 27263
STARLINK-32823          
1 62823U 25018T   25192.75627461  .00011863  00000+0  41192-3 0  9992
2 62823  53.1618 348.4765 0001018 102.7254 257.3861 15.30206722 26294
STARLINK-32852          
1 62824U 25018U   25192.85113621  .00013233  00000+0  45796-3 0  9999
2 62824  53.1581 348.3636 0001746  91.7947 268.3254 15.30210668 26308
STARLINK-32825          
1 62825U 25018V   25193.12758307  .00015165  00000+0  52287-3 0  9996
2 62825  53.1596 344.3989 0001098  93.7201 266.3925 15.30214278 27313
STARLINK-32704          
1 62826U 25018W   25193.25001157  .00042773  00000+0  14867-2 0  9991
2 62826  53.1641 346.2979 0001601  90.9068  61.4448 15.29342051 27295
STARLINK-32838          
1 62827U 25018X   25193.03573576  .00039086  00000+0  98128-3 0  9993
2 62827  53.1597 312.2107 0001323  86.9304 273.1852 15.39646034 27516
STARLINK-32727          
1 62828U 25018Y   25193.11338608 -.00324696  00000+0 -87940-2 0  9993
2 62828  53.1588 344.3123 0001869  64.2640 295.8557 15.38431359 27310
STARLINK-11548 [DTC]    
1 62829U 25019A   25192.70722146  .00164134  00000+0  12484-2 0  9991
2 62829  43.0003 318.2651 0004188 271.2440  88.7948 15.71006607 25987
STARLINK-11480 [DTC]    
1 62830U 25019B   25193.04637923  .00384595  00000+0  28407-2 0  9996
2 62830  42.9994 316.5210 0001710 312.2358  47.8365 15.71036621 26978
STARLINK-11559 [DTC]    
1 62831U 25019C   25192.76031745  .00195973  00000+0  14915-2 0  9994
2 62831  43.0000 318.6912 0002565 264.7331  95.3243 15.70894982 25986
STARLINK-11549 [DTC]    
1 62832U 25019D   25193.06231871  .00166463  00000+0  12703-2 0  9996
2 62832  42.9977 316.6462 0001087 337.2930  22.7889 15.70927429 26978
STARLINK-11554 [DTC]    
1 62833U 25019E   25193.06762200  .00241419  00000+0  18249-2 0  9998
2 62833  42.9996 316.6892 0001547 291.2976  68.7726 15.70917058 26974
STARLINK-11520 [DTC]    
1 62834U 25019F   25191.37729303  .00162585  00000+0  12428-2 0  9997
2 62834  42.9991 326.3524 0002157 272.4939  87.5681 15.70899118 25781
STARLINK-11546 [DTC]    
1 62835U 25019G   25192.70204549  .00139780  00000+0  10728-2 0  9998
2 62835  43.0001 319.1132 0002075 268.3379  91.7251 15.70879365 25975
STARLINK-11533 [DTC]    
1 62836U 25019H   25193.05169105  .00259368  00000+0  19504-2 0  9992
2 62836  43.0006 316.5600 0001715 296.7570  63.3122 15.70986097 26974
STARLINK-11557 [DTC]    
1 62837U 25019J   25193.03575837  .00162200  00000+0  12397-2 0  9995
2 62837  42.9998 316.4301 0001694 283.1446  76.9232 15.70904060 26970
STARLINK-11556 [DTC]    
1 62838U 25019K   25192.64986302  .00172522  00000+0  13181-2 0  9995
2 62838  42.9993 318.6929 0000930 222.6465 137.4331 15.70879414 25973
STARLINK-11524 [DTC]    
1 62839U 25019L   25192.62784425  .00120647  00000+0  92614-3 0  9996
2 62839  42.9989 319.4109 0001230 124.2089 235.8895 15.70942825 26898
STARLINK-11551 [DTC]    
1 62840U 25019M   25193.04106454  .00149831  00000+0  11453-2 0  9992
2 62840  42.9998 316.4703 0003001 277.0319  83.0207 15.70939685 26966
STARLINK-11531 [DTC]    
1 62841U 25019N   25192.42116867  .00123954  00000+0  95480-3 0  9994
2 62841  43.0001 320.4338 0004445 293.8569  66.1833 15.70839807 25937
STARLINK-32755          
1 62842U 25019P   25192.74915669  .00012144  00000+0  44993-3 0  9998
2 62842  42.9978   2.6377 0001776 277.4532  82.6117 15.27590932 26454
STARLINK-32797          
1 62843U 25019Q   25192.81871489  .00008735  00000+0  32651-3 0  9997
2 62843  43.0028   9.2222 0001454 270.6273  89.4412 15.27585275 25417
STARLINK-32794          
1 62844U 25019R   25192.84441116  .00012681  00000+0  46935-3 0  9996
2 62844  43.0001   9.4112 0001360 279.6910  80.3787 15.27593380 26009
STARLINK-32807          
1 62845U 25019S   25192.53372110  .00014023  00000+0  51821-3 0  9992
2 62845  43.0020   3.6037 0001294 266.8911  93.1793 15.27574571 26424
STARLINK-32804          
1 62846U 25019T   25192.82642493  .00017300  00000+0  63635-3 0  9996
2 62846  43.0024   9.2816 0001617 270.6613  89.4053 15.27598703 25415
